{
  "type": "FeatureCollection",
  "features": [
    {
      "type": "Feature",
      "properties": {
        "norad_id": 31922,
        "name": "FENGYUN 1C DEB",
        "group": "fengyun-1c-debris",
        "lat": -36.467964311932846,
        "lon": -6.9043577319580915,
        "alt_km": 854.439703465795,
        "timestamp": "2025-12-21T14:40:48.201709+00:00",
        "meta_object_name": "FENGYUN 1C DEB",
        "meta_object_id": "1999-025CLZ",
        "meta_epoch": "2025-12-17T22:47:28.204800",
        "meta_mean_motion": 13.8662582,
        "meta_eccentricity": 0.01614332,
        "meta_inclination": 98.804,
        "meta_ra_of_asc_node": 343.0708,
        "meta_arg_of_pericenter": 12.3294,
        "meta_mean_anomaly": 41.4764,
        "meta_ephemeris_type": 0,
        "meta_classification_type": "U",
        "meta_norad_cat_id": 31922,
        "meta_element_set_no": 999,
        "meta_rev_at_epoch": 93089,
        "meta_bstar": 0.0013428735,
        "meta_mean_motion_dot": 1.69e-05,
        "meta_mean_motion_ddot": 0,
        "tle_line1": "1 31922U 99025CLZ 25351.94963200  .00001690  00000+0  13429-2 0  9997",
        "tle_line2": "2 31922  98.8040 343.0708 0161433  12.3294  41.4764 13.86625820930898"
      },
      "geometry": {
        "type": "Point",
        "coordinates": [
          -6.9043577319580915,
          -36.467964311932846
        ]
      }
    },
    {
      "type": "Feature",
      "properties": {
        "norad_id": 31923,
        "name": "FENGYUN 1C DEB",
        "group": "fengyun-1c-debris",
        "lat": -36.65549486455605,
        "lon": -98.26193312580821,
        "alt_km": 955.4856721135866,
        "timestamp": "2025-12-21T14:40:48.201720+00:00",
        "meta_object_name": "FENGYUN 1C DEB",
        "meta_object_id": "1999-025CMA",
        "meta_epoch": "2025-12-20T05:40:47.009280",
        "meta_mean_motion": 13.54908967,
        "meta_eccentricity": 0.0300717,
        "meta_inclination": 98.4358,
        "meta_ra_of_asc_node": 86.9011,
        "meta_arg_of_pericenter": 284.1241,
        "meta_mean_anomaly": 72.6659,
        "meta_ephemeris_type": 0,
        "meta_classification_type": "U",
        "meta_norad_cat_id": 31923,
        "meta_element_set_no": 999,
        "meta_rev_at_epoch": 63736,
        "meta_bstar": 0.0012343,
        "meta_mean_motion_dot": 1.096e-05,
        "meta_mean_motion_ddot": 0,
        "tle_line1": "1 31923U 99025CMA 25354.23665520  .00001096  00000+0  12343-2 0  9991",
        "tle_line2": "2 31923  98.4358  86.9011 0300717 284.1241  72.6659 13.54908967637364"
      },
      "geometry": {
        "type": "Point",
        "coordinates": [
          -98.26193312580821,
          -36.65549486455605
        ]
      }
    },
    {
      "type": "Feature",
      "properties": {
        "norad_id": 31924,
        "name": "FENGYUN 1C DEB",
        "group": "fengyun-1c-debris",
        "lat": 53.668558372618634,
        "lon": 140.17685909365443,
        "alt_km": 824.8296839760569,
        "timestamp": "2025-12-21T14:40:48.201730+00:00",
        "meta_object_name": "FENGYUN 1C DEB",
        "meta_object_id": "1999-025CMB",
        "meta_epoch": "2025-12-19T09:36:23.607072",
        "meta_mean_motion": 13.63925419,
        "meta_eccentricity": 0.0272605,
        "meta_inclination": 98.4004,
        "meta_ra_of_asc_node": 149.8539,
        "meta_arg_of_pericenter": 79.2769,
        "meta_mean_anomaly": 283.8942,
        "meta_ephemeris_type": 0,
        "meta_classification_type": "U",
        "meta_norad_cat_id": 31924,
        "meta_element_set_no": 999,
        "meta_rev_at_epoch": 91558,
        "meta_bstar": 0.0010228,
        "meta_mean_motion_dot": 1.012e-05,
        "meta_mean_motion_ddot": 0,
        "tle_line1": "1 31924U 99025CMB 25353.40027323  .00001012  00000+0  10228-2 0  9991",
        "tle_line2": "2 31924  98.4004 149.8539 0272605  79.2769 283.8942 13.63925419915584"
      },
      "geometry": {
        "type": "Point",
        "coordinates": [
          140.17685909365443,
          53.668558372618634
        ]
      }
    },
    {
      "type": "Feature",
      "properties": {
        "norad_id": 31926,
        "name": "FENGYUN 1C DEB",
        "group": "fengyun-1c-debris",
        "lat": 77.55378010981656,
        "lon": -43.27346385040298,
        "alt_km": 799.8032638799586,
        "timestamp": "2025-12-21T14:40:48.201740+00:00",
        "meta_object_name": "FENGYUN 1C DEB",
        "meta_object_id": "1999-025CMD",
        "meta_epoch": "2025-12-21T05:49:33.142944",
        "meta_mean_motion": 14.30818018,
        "meta_eccentricity": 0.00399159,
        "meta_inclination": 98.9573,
        "meta_ra_of_asc_node": 90.7352,
        "meta_arg_of_pericenter": 229.2131,
        "meta_mean_anomaly": 130.5585,
        "meta_ephemeris_type": 0,
        "meta_classification_type": "U",
        "meta_norad_cat_id": 31926,
        "meta_element_set_no": 999,
        "meta_rev_at_epoch": 95349,
        "meta_bstar": 0.0017121344,
        "meta_mean_motion_dot": 4.483e-05,
        "meta_mean_motion_ddot": 0,
        "tle_line1": "1 31926U 99025CMD 25355.24274471  .00004483  00000+0  17121-2 0  9999",
        "tle_line2": "2 31926  98.9573  90.7352 0039915 229.2131 130.5585 14.30818018953498"
      },
      "geometry": {
        "type": "Point",
        "coordinates": [
          -43.27346385040298,
          77.55378010981656
        ]
      }
    },
    {
      "type": "Feature",
      "properties": {
        "norad_id": 31929,
        "name": "FENGYUN 1C DEB",
        "group": "fengyun-1c-debris",
        "lat": -32.188130306506515,
        "lon": 130.71238622417155,
        "alt_km": 755.9218805405344,
        "timestamp": "2025-12-21T14:40:48.201750+00:00",
        "meta_object_name": "FENGYUN 1C DEB",
        "meta_object_id": "1999-025CME",
        "meta_epoch": "2025-12-19T04:15:31.655808",
        "meta_mean_motion": 14.34952586,
        "meta_eccentricity": 0.0073948,
        "meta_inclination": 98.7916,
        "meta_ra_of_asc_node": 122.6445,
        "meta_arg_of_pericenter": 36.4152,
        "meta_mean_anomaly": 324.203,
        "meta_ephemeris_type": 0,
        "meta_classification_type": "U",
        "meta_norad_cat_id": 31929,
        "meta_element_set_no": 999,
        "meta_rev_at_epoch": 70738,
        "meta_bstar": 0.00032929696,
        "meta_mean_motion_dot": 9.21e-06,
        "meta_mean_motion_ddot": 0,
        "tle_line1": "1 31929U 99025CME 25353.17744972  .00000921  00000+0  32930-3 0  9999",
        "tle_line2": "2 31929  98.7916 122.6445 0073948  36.4152 324.2030 14.34952586707388"
      },
      "geometry": {
        "type": "Point",
        "coordinates": [
          130.71238622417155,
          -32.188130306506515
        ]
      }
    },
    {
      "type": "Feature",
      "properties": {
        "norad_id": 31931,
        "name": "FENGYUN 1C DEB",
        "group": "fengyun-1c-debris",
        "lat": 9.259697386682316,
        "lon": -57.17485798885948,
        "alt_km": 1263.1034575148897,
        "timestamp": "2025-12-21T14:40:48.201760+00:00",
        "meta_object_name": "FENGYUN 1C DEB",
        "meta_object_id": "1999-025CMG",
        "meta_epoch": "2025-12-17T14:03:05.853024",
        "meta_mean_motion": 13.42627068,
        "meta_eccentricity": 0.04227153,
        "meta_inclination": 97.8142,
        "meta_ra_of_asc_node": 300.9752,
        "meta_arg_of_pericenter": 257.0233,
        "meta_mean_anomaly": 98.3392,
        "meta_ephemeris_type": 0,
        "meta_classification_type": "U",
        "meta_norad_cat_id": 31931,
        "meta_element_set_no": 999,
        "meta_rev_at_epoch": 65287,
        "meta_bstar": 0.00058612353,
        "meta_mean_motion_dot": 5.32e-06,
        "meta_mean_motion_ddot": 0,
        "tle_line1": "1 31931U 99025CMG 25351.58548441  .00000532  00000+0  58612-3 0  9991",
        "tle_line2": "2 31931  97.8142 300.9752 0422715 257.0233  98.3392 13.42627068652870"
      },
      "geometry": {
        "type": "Point",
        "coordinates": [
          -57.17485798885948,
          9.259697386682316
        ]
      }
    },
    {
      "type": "Feature",
      "properties": {
        "norad_id": 31934,
        "name": "FENGYUN 1C DEB",
        "group": "fengyun-1c-debris",
        "lat": 41.651100228922076,
        "lon": -125.7066781143582,
        "alt_km": 529.8158216927695,
        "timestamp": "2025-12-21T14:40:48.201770+00:00",
        "meta_object_name": "FENGYUN 1C DEB",
        "meta_object_id": "1999-025CMK",
        "meta_epoch": "2025-12-17T14:29:22.520832",
        "meta_mean_motion": 15.0735698,
        "meta_eccentricity": 0.00367266,
        "meta_inclination": 98.8801,
        "meta_ra_of_asc_node": 41.6776,
        "meta_arg_of_pericenter": 217.4543,
        "meta_mean_anomaly": 142.4121,
        "meta_ephemeris_type": 0,
        "meta_classification_type": "U",
        "meta_norad_cat_id": 31934,
        "meta_element_set_no": 999,
        "meta_rev_at_epoch": 60916,
        "meta_bstar": 0.0026504952,
        "meta_mean_motion_dot": 0.00040819,
        "meta_mean_motion_ddot": 0,
        "tle_line1": "1 31934U 99025CMK 25351.60373288  .00040819  00000+0  26505-2 0  9999",
        "tle_line2": "2 31934  98.8801  41.6776 0036726 217.4543 142.4121 15.07356980609168"
      },
      "geometry": {
        "type": "Point",
        "coordinates": [
          -125.7066781143582,
          41.651100228922076
        ]
      }
    }
  ]
}